[
    {
        "Altitude(m)": 605459.0025187717,
        "Argument of Periapsis(deg)": 0.0,
        "Eccentricity": 0.0,
        "Inclination(deg)": 60.0,
        "Latitude(deg)": 27.988128675357466,
        "Longitude(deg)": -72.20142854356473,
        "Mean Anomaly(deg)": 32.7273,
        "RAAN(deg)": 10.0,
        "Satellite Name": "Test1 46",
        "Satellite Number": 46,
        "Semi-Major Axis(m)": 6980739.136638005,
        "Time(s)": 0
    },
    {
        "Altitude(m)": 605535.7932733927,
        "Argument of Periapsis(deg)": 0.00010418945913296404,
        "Eccentricity": 0.0,
        "Inclination(deg)": 60.0,
        "Latitude(deg)": 28.501258351477894,
        "Longitude(deg)": -71.84448404088016,
        "Mean Anomaly(deg)": 33.347406145461825,
        "RAAN(deg)": 9.999579950860259,
        "Satellite Name": "Test1 46",
        "Satellite Number": 46,
        "Semi-Major Axis(m)": 6980739.136638005,
        "Time(s)": 10
    }
]